NORAD_CAT_ID,OBJECT_NAME,OBJECT_TYPE,EPOCH,MEAN_MOTION,ECCENTRICITY,INCLINATION,RA_OF_ASC_NODE,ARG_OF_PERICENTER,MEAN_ANOMALY,BSTAR,MEAN_MOTION_DOT,MEAN_MOTION_DDOT,TLE_LINE0,TLE_LINE1,TLE_LINE2,SEMIMAJOR_AXIS,PERIOD,APOGEE,PERIGEE,DECAYED
53844.0,STARLINK-4745,PAYLOAD,2023-04-27 15:16:11,15.0882764,0.0001423,53.2175,314.423,53.367,306.7453,0.00030128,4.509e-05,0.0,0 STARLINK-4745,1 53844U 22114AC  23117.63624164  .00004509  00000-0  30128-3 0  9995,2 53844  53.2175 314.4230 0001423  53.3670 306.7453 15.08827640 34365,6917.918,95.438,540.768,538.799,0.0
53844.0,STARLINK-4745,PAYLOAD,2023-04-28 05:34:40,15.08826121,5.78e-05,53.221,311.7476,38.449,321.6543,7.4017e-05,8.9e-06,0.0,0 STARLINK-4745,1 53844U 22114AC  23118.23241167  .00000890  00000-0  74017-4 0  9995,2 53844  53.2210 311.7476 0000578  38.4490 321.6543 15.08826121 34450,6917.923,95.438,540.188,539.388,0.0
53844.0,STARLINK-4745,PAYLOAD,2023-04-28 19:53:08,15.08845588,0.0001025,53.2198,309.0709,43.6816,316.4257,-6.8344e-05,-1.375e-05,0.0,0 STARLINK-4745,1 53844U 22114AC  23118.82856589 -.00001375  00000-0 -68344-4 0  9997,2 53844  53.2198 309.0709 0001025  43.6816 316.4257 15.08845588 34544,6917.863,95.437,540.437,539.019,0.0
53844.0,STARLINK-4745,PAYLOAD,2023-04-29 11:46:59,15.08843479,0.0001304,53.2174,306.0946,49.6703,310.4403,-0.00016206,-2.866e-05,0.0,0 STARLINK-4745,1 53844U 22114AC  23119.49096921 -.00002866  00000-0 -16206-3 0  9992,2 53844  53.2174 306.0946 0001304  49.6703 310.4403 15.08843479 35184,6917.87,95.437,540.637,538.833,0.0
53844.0,STARLINK-4745,PAYLOAD,2023-04-29 21:19:18,15.08847643,0.0001348,53.2178,304.3106,59.067,301.0454,-0.00011065,-2.049e-05,0.0,0 STARLINK-4745,1 53844U 22114AC  23119.88840352 -.00002049  00000-0 -11065-3 0  9991,2 53844  53.2178 304.3106 0001348  59.0670 301.0454 15.08847643 34709,6917.857,95.437,540.655,538.79,0.0
53844.0,STARLINK-4745,PAYLOAD,2023-04-30 19:34:42,15.08788434,0.0001682,53.218,300.1473,72.4536,287.664,0.00062853,9.715e-05,0.0,0 STARLINK-4745,1 53844U 22114AC  23120.81577357  .00009715  00000-0  62853-3 0  9994,2 53844  53.2180 300.1473 0001682  72.4536 287.6640 15.08788434 34847,6918.038,95.441,541.067,538.739,0.0
53844.0,STARLINK-4745,PAYLOAD,2023-04-30 22:45:28,15.08843517,0.0001325,53.2175,299.553,67.1426,292.9706,4.3701e-05,4.08e-06,0.0,0 STARLINK-4745,1 53844U 22114AC  23120.94824123  .00000408  00000-0  43701-4 0  9996,2 53844  53.2175 299.5530 0001325  67.1426 292.9706 15.08843517 34867,6917.87,95.437,540.651,538.818,0.0
53844.0,STARLINK-4745,PAYLOAD,2023-05-01 11:28:33,15.08832876,0.0001103,53.2169,297.1746,70.1649,289.9462,1.3356e-05,-7.5e-07,0.0,0 STARLINK-4745,1 53844U 22114AC  23121.47816885 -.00000075  00000-0  13356-4 0  9995,2 53844  53.2169 297.1746 0001103  70.1649 289.9462 15.08832876 34948,6917.902,95.438,540.53,539.004,0.0
53844.0,STARLINK-4745,PAYLOAD,2023-05-01 19:25:29,15.08839137,0.0001316,53.2174,295.6871,62.012,298.1005,1.9679e-05,2.5e-07,0.0,0 STARLINK-4745,1 53844U 22114AC  23121.80936630  .00000025  00000-0  19679-4 0  9991,2 53844  53.2174 295.6871 0001316  62.0120 298.1005 15.08839137 35534,6917.883,95.438,540.658,538.838,0.0
53844.0,STARLINK-4745,PAYLOAD,2023-05-01 22:36:15,15.08843457,0.0001239,53.2174,295.0919,65.1506,294.9615,4.8868e-05,4.9e-06,0.0,0 STARLINK-4745,1 53844U 22114AC  23121.94184200  .00000490  00000-0  48868-4 0  9992,2 53844  53.2174 295.0919 0001239  65.1506 294.9615 15.08843457 35011,6917.87,95.437,540.592,538.878,0.0
53844.0,STARLINK-4745,PAYLOAD,2023-05-02 11:19:20,15.08839881,0.000114,53.217,292.7136,74.4035,285.7083,-4.6223e-05,-1.023e-05,0.0,0 STARLINK-4745,1 53844U 22114AC  23122.47176774 -.00001023  00000-0 -46223-4 0  9996,2 53844  53.2170 292.7136 0001140  74.4035 285.7083 15.08839881 35094,6917.881,95.438,540.534,538.957,0.0
53844.0,STARLINK-4745,PAYLOAD,2023-05-02 17:40:52,15.08844288,0.0001083,53.2169,291.5235,79.7283,280.3831,-7.9496e-06,-4.14e-06,0.0,0 STARLINK-4745,1 53844U 22114AC  23122.73672264 -.00000414  00000-0 -79496-5 0  9992,2 53844  53.2169 291.5235 0001083  79.7283 280.3831 15.08844288 35671,6917.867,95.437,540.481,538.983,0.0
53844.0,STARLINK-4745,PAYLOAD,2023-05-03 04:48:35,15.08837181,0.0001243,53.2173,289.4434,64.6261,295.486,-4.7521e-05,-1.044e-05,0.0,0 STARLINK-4745,1 53844U 22114AC  23123.20040725 -.00001044  00000-0 -47521-4 0  9999,2 53844  53.2173 289.4434 0001243  64.6261 295.4860 15.08837181 35741,6917.889,95.438,540.614,538.894,0.0
53844.0,STARLINK-4745,PAYLOAD,2023-05-03 17:31:40,15.08836204,0.0001133,53.2172,287.0617,81.8739,278.2381,-5.8692e-05,-1.222e-05,0.0,0 STARLINK-4745,1 53844U 22114AC  23123.73032934 -.00001222  00000-0 -58692-4 0  9999,2 53844  53.2172 287.0617 0001133  81.8739 278.2381 15.08836204 35287,6917.892,95.438,540.541,538.973,0.0
53844.0,STARLINK-4745,PAYLOAD,2023-05-03 20:42:26,15.08839591,0.0001014,53.2171,286.4651,90.4369,269.6739,-5.5615e-05,-1.173e-05,0.0,0 STARLINK-4745,1 53844U 22114AC  23123.86280634 -.00001173  00000-0 -55615-4 0  9992,2 53844  53.2171 286.4651 0001014  90.4369 269.6739 15.08839591 35845,6917.882,95.438,540.448,539.045,0.0
53844.0,STARLINK-4745,PAYLOAD,2023-05-03 22:17:49,15.08843359,0.000107,53.2186,286.168,103.7518,256.3593,-1.8588e-05,-5.84e-06,0.0,0 STARLINK-4745,1 53844U 22114AC  23123.92904247 -.00000584  00000-0 -18588-4 0  9995,2 53844  53.2186 286.1680 0001070 103.7518 256.3593 15.08843359 35316,6917.87,95.437,540.475,538.995,0.0
53844.0,STARLINK-4745,PAYLOAD,2023-05-04 14:11:40,15.08845744,0.0001006,53.2176,283.195,99.3398,260.7708,-2.7474e-05,-7.25e-06,0.0,0 STARLINK-4745,1 53844U 22114AC  23124.59144032 -.00000725  00000-0 -27474-4 0  9998,2 53844  53.2176 283.1950 0001006  99.3398 260.7708 15.08845744 35954,6917.863,95.437,540.424,539.032,0.0
53844.0,STARLINK-4745,PAYLOAD,2023-05-04 20:33:13,15.08841282,0.000149,53.2179,282.0034,125.3364,234.7768,-7.6864e-05,-1.511e-05,0.0,0 STARLINK-4745,1 53844U 22114AC  23124.85640698 -.00001511  00000-0 -76864-4 0  9997,2 53844  53.2179 282.0034 0001490 125.3364 234.7768 15.08841282 35992,6917.876,95.437,540.772,538.711,0.0
53844.0,STARLINK-4745,PAYLOAD,2023-05-05 02:54:46,15.08838897,0.0001179,53.2181,280.8156,99.6585,260.454,-7.0138e-05,-1.404e-05,0.0,0 STARLINK-4745,1 53844U 22114AC  23125.12136903 -.00001404  00000-0 -70138-4 0  9996,2 53844  53.2181 280.8156 0001179  99.6585 260.4540 15.08838897 35495,6917.884,95.438,540.564,538.933,0.0
53844.0,STARLINK-4745,PAYLOAD,2023-05-05 18:48:37,15.08840636,0.0001054,53.2166,277.8457,87.3331,272.7782,-1.4686e-05,-5.21e-06,0.0,0 STARLINK-4745,1 53844U 22114AC  23125.78376878 -.00000521  00000-0 -14686-4 0  9990,2 53844  53.2166 277.8457 0001054  87.3331 272.7782 15.08840636 36133,6917.878,95.438,540.473,539.014,0.0
53844.0,STARLINK-4745,PAYLOAD,2023-05-06 13:53:15,15.08841098,9.55e-05,53.2158,274.2766,85.9842,274.1259,-3.725e-05,-8.81e-06,0.0,0 STARLINK-4745,1 53844U 22114AC  23126.57865278 -.00000881  00000-0 -37250-4 0  9996,2 53844  53.2158 274.2766 0000955  85.9842 274.1259 15.08841098 36259,6917.877,95.437,540.403,539.081,0.0
53844.0,STARLINK-4745,PAYLOAD,2023-05-07 02:36:20,15.08847703,8.23e-05,53.2155,271.8989,84.8086,275.3,2.5774e-06,-2.47e-06,0.0,0 STARLINK-4745,1 53844U 22114AC  23127.10856490 -.00000247  00000-0  25774-5 0  9996,2 53844  53.2155 271.8989 0000823  84.8086 275.3000 15.08847703 35792,6917.857,95.437,540.291,539.153,0.0
53844.0,STARLINK-4745,PAYLOAD,2023-05-07 13:44:03,15.08828716,0.000176,53.2174,269.818,83.0037,277.1156,-2.9797e-05,-7.62e-06,0.0,0 STARLINK-4745,1 53844U 22114AC  23127.57226345 -.00000762  00000-0 -29797-4 0  9998,2 53844  53.2174 269.8180 0001760  83.0037 277.1156 15.08828716 36405,6917.915,95.438,540.997,538.562,0.0
53844.0,STARLINK-4745,PAYLOAD,2023-05-07 16:54:50,15.08826381,0.0001446,53.2164,269.2207,75.3333,284.782,-9.5761e-05,-1.811e-05,0.0,0 STARLINK-4745,1 53844U 22114AC  23127.70474742 -.00001811  00000-0 -95761-4 0  9999,2 53844  53.2164 269.2207 0001446  75.3333 284.7820 15.08826381 35881,6917.922,95.438,540.787,538.787,0.0
53844.0,STARLINK-4745,PAYLOAD,2023-05-08 02:27:08,15.08833147,0.0001163,53.2155,267.4375,78.6584,281.4539,-9.9335e-06,-4.46e-06,0.0,0 STARLINK-4745,1 53844U 22114AC  23128.10218111 -.00000446  00000-0 -99335-5 0  9995,2 53844  53.2155 267.4375 0001163  78.6584 281.4539 15.08833147 35943,6917.901,95.438,540.571,538.962,0.0
53844.0,STARLINK-4745,PAYLOAD,2023-05-08 16:45:35,15.08847466,0.0001076,53.2162,264.7607,75.1598,284.9513,3.0824e-05,2.03e-06,0.0,0 STARLINK-4745,1 53844U 22114AC  23128.69833090  .00000203  00000-0  30824-4 0  9994,2 53844  53.2162 264.7607 0001076  75.1598 284.9513 15.08847466 36039,6917.858,95.437,540.467,538.978,0.0
53844.0,STARLINK-4745,PAYLOAD,2023-05-08 21:31:45,15.08841859,0.0001006,53.2171,263.869,79.9597,280.1509,0.00010578,1.396e-05,0.0,0 STARLINK-4745,1 53844U 22114AC  23128.89705104  .00001396  00000-0  10578-3 0  9997,2 53844  53.2171 263.8690 0001006  79.9597 280.1509 15.08841859 36601,6917.875,95.437,540.436,539.044,0.0
53844.0,STARLINK-4745,PAYLOAD,2023-05-09 13:25:37,15.08831961,0.0001227,53.2166,260.897,69.5169,290.5955,9.1525e-05,1.169e-05,0.0,0 STARLINK-4745,1 53844U 22114AC  23129.55945859  .00001169  00000-0  91525-4 0  9994,2 53844  53.2166 260.8970 0001227  69.5169 290.5955 15.08831961 36702,6917.905,95.438,540.619,538.921,0.0
53844.0,STARLINK-4745,PAYLOAD,2023-05-10 11:41:00,15.08839261,0.0001013,53.2167,256.7309,85.3622,274.7485,-1.7279e-05,-5.63e-06,0.0,0 STARLINK-4745,1 53844U 22114AC  23130.48681676 -.00000563  00000-0 -17279-4 0  9995,2 53844  53.2167 256.7309 0001013  85.3622 274.7485 15.08839261 36844,6917.883,95.438,540.448,539.047,0.0
53844.0,STARLINK-4745,PAYLOAD,2023-05-10 16:27:09,15.0884913,0.0001196,53.2173,255.8376,94.0466,266.0663,-6.3428e-05,-1.297e-05,0.0,0 STARLINK-4745,1 53844U 22114AC  23130.68553218 -.00001297  00000-0 -63428-4 0  9999,2 53844  53.2173 255.8376 0001196  94.0466 266.0663 15.08849130 36332,6917.852,95.437,540.545,538.89,0.0
